ONEWEB-0275             
1 48993U 21060AC  26061.52969113  .00000020  00000+0  18716-4 0  9991
2 48993  87.8999 249.9939 0001565  97.2516 262.8793 13.16593329225522
ONEWEB-0276             
1 48994U 21060AD  26061.56294482  .00000067  00000+0  14268-3 0  9994
2 48994  87.8998 249.9874 0001810  96.3730 263.7607 13.16593056225544
ONEWEB-0277             
1 48995U 21060AE  26061.57556441 -.00000351  00000+0 -95280-3 0  9993
2 48995  87.8990 250.0011 0001636  98.7506 261.3811 13.16593264225537
ONEWEB-0278             
1 48996U 21060AF  26061.56610545  .00000062  00000+0  12897-3 0  9999
2 48996  87.9001 249.9834 0001775  88.0063 272.1271 13.16593027225667
ONEWEB-0279             
1 48997U 21060AG  26061.57402203  .00000045  00000+0  84270-4 0  9997
2 48997  87.9001 249.9809 0001560 105.6652 254.4652 13.16592399225591
ONEWEB-0280             
1 48998U 21060AH  26061.51307809  .00000126  00000+0  29586-3 0  9996
2 48998  87.9001 249.9983 0001983  96.5847 263.5510 13.16594338225520
ONEWEB-0281             
1 48999U 21060AJ  26061.59460641  .00000154  00000+0  36959-3 0  9992
2 48999  87.8998 249.9765 0001490  92.6826 267.4475 13.16593069225602
ONEWEB-0282             
1 49000U 21060AK  26061.54869023 -.00000004  00000+0 -44820-4 0  9991
2 49000  87.9000 249.9962 0001725  99.1837 260.9489 13.16593016225576
ONEWEB-0283             
1 49001U 21060AL  26061.53760525 -.00000032  00000+0 -11831-3 0  9994
2 49001  87.8997 249.9985 0001581 100.3159 259.8150 13.16592978225587
ONEWEB-0284             
1 49002U 21060AM  26061.53128132  .00000033  00000+0  52101-4 0  9992
2 49002  87.9002 249.9909 0001963  92.5457 267.5899 13.16593277225566
ONEWEB-0285             
1 49075U 21075A   26061.78565350  .00000080  00000+0  18641-3 0  9994
2 49075  87.8999  11.7775 0001871  82.4072 277.7269 13.12440298221251
ONEWEB-0286             
1 49076U 21075B   26061.76774635  .00000385  00000+0  10337-2 0  9992
2 49076  87.8985  11.8082 0001812  73.8078 286.3249 13.12442946220608
ONEWEB-0287             
1 49077U 21075C   26061.62821010  .00000023  00000+0  25477-4 0  9990
2 49077  87.9137  27.0273 0001974  69.0378 291.0965 13.17650360219599
ONEWEB-0288             
1 49078U 21075D   26061.59168022 -.00000172  00000+0 -51357-3 0  9996
2 49078  87.8991  11.8103 0001947  79.0931 281.0416 13.12442428221206
ONEWEB-0289             
1 49079U 21075E   26061.81874620  .00000035  00000+0  56874-4 0  9996
2 49079  87.9144  27.0016 0002294  86.9941 273.1453 13.17650844220192
ONEWEB-0290             
1 49080U 21075F   26061.64003328  .00000010  00000+0 -75753-5 0  9990
2 49080  87.9145  27.0049 0002336  93.8041 266.3358 13.17646851219588
ONEWEB-0291             
1 49081U 21075G   26061.62484220 -.00000024  00000+0 -93757-4 0  9992
2 49081  87.9145  27.0163 0002204  75.9033 284.2344 13.17648822219575
ONEWEB-0293             
1 49082U 21075H   26061.42234885  .00000090  00000+0  19825-3 0  9995
2 49082  87.9135  27.0683 0002028  83.8135 276.3227 13.17649319219571
ONEWEB-0294             
1 49083U 21075J   26061.36974517  .00000166  00000+0  42669-3 0  9998
2 49083  87.8995  11.8566 0002177  84.9537 275.1840 13.12442850220564
ONEWEB-0295             
1 49084U 21075K   26061.42151038  .00000177  00000+0  42326-3 0  9993
2 49084  87.9136  27.0730 0002093  73.8664 286.2698 13.17649360219539
ONEWEB-0296             
1 49085U 21075L   26061.80683322 -.00000391  00000+0 -11236-2 0  9997
2 49085  87.8999  11.7731 0002112  73.5685 286.5675 13.12441869220628
ONEWEB-0297             
1 49086U 21075M   26061.76110271  .00000264  00000+0  69734-3 0  9995
2 49086  87.8986  11.8081 0001900  76.9093 283.2248 13.12442173221224
ONEWEB-0298             
1 49087U 21075N   26061.42585489  .00000035  00000+0  55994-4 0  9996
2 49087  87.9135  27.0692 0001738  79.9956 280.1372 13.17650211219566
ONEWEB-0299             
1 49088U 21075P   26061.80708056 -.00000046  00000+0 -15220-3 0  9997
2 49088  87.9149  26.9631 0001916  77.0171 283.1174 13.17649408219591
ONEWEB-0300             
1 49089U 21075Q   26061.75347904  .00000140  00000+0  35416-3 0  9995
2 49089  87.8996  11.7768 0001496  76.3380 283.7915 13.12443701221248
ONEWEB-0301             
1 49090U 21075R   26061.81360191 -.00000361  00000+0 -10380-2 0  9996
2 49090  87.8992  11.7657 0001446  81.1314 278.9978 13.12444054220616
ONEWEB-0302             
1 49091U 21075S   26061.80005920 -.00000346  00000+0 -99615-3 0  9994
2 49091  87.8997  11.7768 0002146  80.9493 279.1878 13.12441697220597
ONEWEB-0304             
1 49092U 21075T   26061.40210305  .00000001  00000+0 -30021-4 0  9990
2 49092  87.9145  27.0738 0001947  78.6858 281.4492 13.17648056219519
ONEWEB-0305             
1 49093U 21075U   26061.62316074  .00000018  00000+0  13926-4 0  9997
2 49093  87.9145  27.0084 0002015  70.7468 289.3882 13.17647997219570
ONEWEB-0308             
1 49094U 21075V   26061.79327893 -.00000174  00000+0 -51954-3 0  9994
2 49094  87.8996  11.7712 0001828  80.5236 279.6099 13.12440483220609
ONEWEB-0309             
1 49095U 21075W   26061.62654085  .00000005  00000+0 -20168-4 0  9999
2 49095  87.9146  27.0221 0002314  84.3090 275.8306 13.17648070219541
ONEWEB-0310             
1 49096U 21075X   26061.80852550 -.00000383  00000+0 -11006-2 0  9996
2 49096  87.8987  11.7989 0001848  81.1084 279.0253 13.12443620221239
ONEWEB-0311             
1 49097U 21075Y   26061.63330340 -.00000063  00000+0 -19527-3 0  9998
2 49097  87.9147  27.0159 0001863  68.3497 291.7833 13.17648232219592
ONEWEB-0312             
1 49098U 21075Z   26061.64846713  .00000063  00000+0  12809-3 0  9990
2 49098  87.9138  27.0312 0002159  75.9689 284.1683 13.17649265219574
ONEWEB-0313             
1 49099U 21075AA  26061.80527132 -.00000006  00000+0 -47712-4 0  9991
2 49099  87.9137  27.0065 0001933  77.9074 282.2274 13.17648841219583
ONEWEB-0314             
1 49100U 21075AB  26061.46790756  .00000092  00000+0  20453-3 0  9995
2 49100  87.9145  27.0358 0002176  74.2978 285.8393 13.17649715219518
ONEWEB-0315             
1 49101U 21075AC  26061.78142481  .00000212  00000+0  55513-3 0  9996
2 49101  87.8995  11.7603 0001708  69.0147 291.1164 13.12440699221215
ONEWEB-0316             
1 49102U 21075AD  26061.78000986 -.00000281  00000+0 -74612-3 0  9999
2 49102  87.9239 356.5932 0001793  76.7737 283.3595 13.18684953223185
ONEWEB-0317             
1 49103U 21075AE  26061.78481881  .00000097  00000+0  23394-3 0  9991
2 49103  87.9000  11.7815 0002319  96.7182 263.4210 13.12440849221238
ONEWEB-0318             
1 49104U 21075AF  26061.77672467 -.00000815  00000+0 -21010-2 0  9995
2 49104  87.9251 356.5858 0001841  71.9224 288.2109 13.18690867223142
ONEWEB-0319             
1 49105U 21075AG  26061.63497115 -.00000029  00000+0 -10726-3 0  9996
2 49105  87.9136  27.0282 0001659  64.7682 295.3622 13.17648291219575
ONEWEB-0323             
1 49106U 21075AH  26061.76617980  .00000441  00000+0  11907-2 0  9992
2 49106  87.8998  11.7674 0001980  60.3343 299.7982 13.12441984220595
ONEWEB-0329             
1 49107U 21075AJ  26061.64340162  .00000004  00000+0 -22115-4 0  9996
2 49107  87.9137  27.0269 0001983  78.3599 281.7755 13.17648397219552
ONEWEB-0330             
1 49108U 21075AK  26061.79612804  .00000012  00000+0 -22800-5 0  9999
2 49108  87.9137  27.0043 0002140  81.1576 278.9798 13.17647576219616
ONEWEB-0292             
1 49186U 21083A   26061.74546543  .00000093  00000+0  22088-3 0  9999
2 49186  87.9031 341.4193 0001667  72.3492 287.7819 13.13472518216950
ONEWEB-0303             
1 49187U 21083B   26061.77343546  .00000013  00000+0 -12622-6 0  9990
2 49187  87.9250 356.5891 0001800  73.2613 286.8717 13.18685607215956
ONEWEB-0306             
1 49188U 21083C   26061.76353727  .00000031  00000+0  45102-4 0  9998
2 49188  87.9249 356.5745 0001939  85.4208 274.7146 13.18685773215991
ONEWEB-0307             
1 49189U 21083D   26061.81571002 -.00000104  00000+0 -31873-3 0  9995
2 49189  87.9031 341.3944 0001788  77.9501 282.1828 13.13469441216963
ONEWEB-0320             
1 49190U 21083E   26061.77494559 -.00001078  00000+0 -27899-2 0  9996
2 49190  87.9238 356.5974 0004029  80.6455 279.5132 13.18120867215952
ONEWEB-0321             
1 49191U 21083F   26061.68687265  .00000086  00000+0  17841-3 0  9998
2 49191  87.9184 295.6992 0001776  92.6420 267.4917 13.20772866222777
ONEWEB-0322             
1 49192U 21083G   26061.81147351 -.00000078  00000+0 -24869-3 0  9992
2 49192  87.9031 341.4000 0001713  94.3636 265.7688 13.13469979216957
ONEWEB-0324             
1 49193U 21083H   26061.75694174  .00000023  00000+0  26149-4 0  9998
2 49193  87.9250 356.5820 0001995  78.2792 281.8564 13.18685694215976
ONEWEB-0325             
1 49194U 21083J   26061.76024508  .00000024  00000+0  29050-4 0  9993
2 49194  87.9241 356.5989 0001779  79.7714 280.3619 13.18685100215981
ONEWEB-0326             
1 49195U 21083K   26061.77521985  .00000078  00000+0  16621-3 0  9994
2 49195  87.9249 356.5845 0001687  70.5558 289.5756 13.18686511215973
ONEWEB-0327             
1 49196U 21083L   26061.77495028 -.00000015  00000+0 -69837-4 0  9994
2 49196  87.9240 356.5977 0001561  71.4158 288.7144 13.18685533215995
ONEWEB-0328             
1 49197U 21083M   26061.80131723 -.00000363  00000+0 -10288-2 0  9998
2 49197  87.9049 341.3607 0001899  76.6799 283.4542 13.13469661216933
ONEWEB-0331             
1 49198U 21083N   26061.76849160  .00000074  00000+0  15530-3 0  9998
2 49198  87.9248 356.5792 0001884  68.8101 291.3232 13.18685203215987
ONEWEB-0333             
1 49199U 21083P   26061.79623781 -.00000319  00000+0 -90874-3 0  9999
2 49199  87.9032 341.4014 0001707  77.7492 282.3829 13.13469066216946
ONEWEB-0334             
1 49200U 21083Q   26061.70424322  .00000000  00000+0 -32198-4 0  9995
2 49200  87.9174 295.7147 0001774 116.2401 243.8915 13.20771829222730
ONEWEB-0335             
1 49201U 21083R   26061.71497722 -.00000190  00000+0 -55516-3 0  9990
2 49201  87.9038 341.4109 0001785  72.2656 287.8668 13.13468249216942
